$$SOE
2460721.500000000, A.D. 2025-Feb-15 00:00:00.0000, -2.427074972950370E+07, -2.655909835016968E+08, -1.116799470337029E+08,
2460728.500000000, A.D. 2025-Feb-22 00:00:00.0000, -1.164368241849896E+07, -2.663873570272094E+08, -1.105745086569601E+08,
2460735.500000000, A.D. 2025-Mar-01 00:00:00.0000, 1.006864213441195E+06, -2.666462143132523E+08, -1.092459313866614E+08,
2460742.500000000, A.D. 2025-Mar-08 00:00:00.0000, 1.365535248454533E+07, -2.663642261883305E+08, -1.076957469428241E+08,
2460749.500000000, A.D. 2025-Mar-15 00:00:00.0000, 2.627597608300165E+07, -2.655390115119060E+08, -1.059259071961775E+08,
2460756.500000000, A.D. 2025-Mar-22 00:00:00.0000, 3.884269004322565E+07, -2.641691624771707E+08, -1.039387908191582E+08,
2460763.500000000, A.D. 2025-Mar-29 00:00:00.0000, 5.132924434183557E+07, -2.622542722985729E+08, -1.017372100423625E+08,
2460770.500000000, A.D. 2025-Apr-05 00:00:00.0000, 6.370922159061775E+07, -2.597949620092497E+08, -9.932441721842392E+07,
2460777.500000000, A.D. 2025-Apr-12 00:00:00.0000, 7.595607704516497E+07, -2.567929061080447E+08, -9.670411092874046E+07,
2460784.500000000, A.D. 2025-Apr-19 00:00:00.0000, 8.804318087938306E+07, -2.532508577592242E+08, -9.388044159993002E+07,
2460791.500000000, A.D. 2025-Apr-26 00:00:00.0000, 9.994386312570293E+07, -2.491726735489486E+08, -9.085801657621898E+07,
2460798.500000000, A.D. 2025-May-03 00:00:00.0000, 1.116314615099669E+08, -2.445633375594224E+08, -8.764190455383930E+07,
2460805.500000000, A.D. 2025-May-10 00:00:00.0000, 1.230793723088689E+08, -2.394289845087280E+08, -8.423763926801795E+07,
2460812.500000000, A.D. 2025-May-17 00:00:00.0000, 1.342611043506266E+08, -2.337769217290303E+08, -8.065122232078931E+07,
2460819.500000000, A.D. 2025-May-24 00:00:00.0000, 1.451503364019117E+08, -2.276156497511880E+08, -7.688912504961474E+07,
2460826.500000000, A.D. 2025-May-31 00:00:00.0000, 1.557209784035409E+08, -2.209548808892503E+08, -7.295828932763463E+07,
2460833.500000000, A.D. 2025-Jun-07 00:00:00.0000, 1.659472361607146E+08, -2.138055543109629E+08, -6.886612702835900E+07,
2460840.500000000, A.D. 2025-Jun-14 00:00:00.0000, 1.758036770847671E+08, -2.061798479239264E+08, -6.462051784392514E+07,
2460847.500000000, A.D. 2025-Jun-21 00:00:00.0000, 1.852652981228847E+08, -1.980911899709617E+08, -6.022980567404763E+07,
2460854.500000000, A.D. 2025-Jun-28 00:00:00.0000, 1.943075988976220E+08, -1.895542681595097E+08, -5.570279356985890E+07,
2460861.500000000, A.D. 2025-Jul-05 00:00:00.0000, 2.029066584137676E+08, -1.805850337525050E+08, -5.104873677800573E+07,
2460868.500000000, A.D. 2025-Jul-12 00:00:00.0000, 2.110392139812981E+08, -1.712007010267164E+08, -4.627733371954909E+07,
2460875.500000000, A.D. 2025-Jul-19 00:00:00.0000, 2.186827423268807E+08, -1.614197422919415E+08, -4.139871484850183E+07,
2460882.500000000, A.D. 2025-Jul-26 00:00:00.0000, 2.258155428205682E+08, -1.512618781483290E+08, -3.642342928833599E+07,
2460889.500000000, A.D. 2025-Aug-02 00:00:00.0000, 2.324168225392453E+08, -1.407480625761585E+08, -3.136242912447039E+07,
2460896.500000000, A.D. 2025-Aug-09 00:00:00.0000, 2.384667827918533E+08, -1.299004624935677E+08, -2.622705123854253E+07,
2460903.500000000, A.D. 2025-Aug-16 00:00:00.0000, 2.439467067263051E+08, -1.187424314847506E+08, -2.102899659283265E+07,
2460910.500000000, A.D. 2025-Aug-23 00:00:00.0000, 2.488390477899562E+08, -1.072984773442899E+08, -1.578030690218953E+07,
2460917.500000000, A.D. 2025-Aug-30 00:00:00.0000, 2.531275187986883E+08, -9.559422241866295E+07, -1.049333859555921E+07,
2460924.500000000, A.D. 2025-Sep-06 00:00:00.0000, 2.567971795662960E+08, -8.365635549487668E+07, -5.180733806929011E+06,
2460931.500000000, A.D. 2025-Sep-13 00:00:00.0000, 2.598345207124603E+08, -7.151257751395981E+07, 1.446115735509060E+05,
2460938.500000000, A.D. 2025-Sep-20 00:00:00.0000, 2.622275461514841E+08, -5.919154257399315E+07, 5.469582329064298E+06,
2460945.500000000, A.D. 2025-Sep-27 00:00:00.0000, 2.639658545415263E+08, -4.672279098441458E+07, 1.078088091132790E+07,
2460952.500000000, A.D. 2025-Oct-04 00:00:00.0000, 2.650407169061951E+08, -3.413667379947869E+07, 1.606506712214580E+07,
2460959.500000000, A.D. 2025-Oct-11 00:00:00.0000, 2.654451492714209E+08, -2.146426984991429E+07, 2.130860030599569E+07,
2460966.500000000, A.D. 2025-Oct-18 00:00:00.0000, 2.651739797903867E+08, -8.737295726496847E+06, 2.649788384925587E+07,
2460973.500000000, A.D. 2025-Oct-25 00:00:00.0000, 2.642239096616660E+08, 4.011991023923732E+06, 3.161931178638192E+07,
2460980.500000000, A.D. 2025-Nov-01 00:00:00.0000, 2.625935670423976E+08, 1.675089514642787E+07, 3.665931728322842E+07,
2460987.500000000, A.D. 2025-Nov-08 00:00:00.0000, 2.602835531751556E+08, 2.944639288961964E+07, 4.160442272276600E+07,
2460994.500000000, A.D. 2025-Nov-15 00:00:00.0000, 2.572964801037634E+08, 4.206524657638879E+07, 4.644129106676205E+07,
2461001.500000000, A.D. 2025-Nov-22 00:00:00.0000, 2.536369996601584E+08, 5.457412410511717E+07, 5.115677812756651E+07,
2461008.500000000, A.D. 2025-Nov-29 00:00:00.0000, 2.493118229045569E+08, 6.693972377991528E+07, 5.573798547194892E+07,
2461015.500000000, A.D. 2025-Dec-06 00:00:00.0000, 2.443297271798227E+08, 7.912890352810159E+07, 6.017231375281323E+07,
2461022.500000000, A.D. 2025-Dec-13 00:00:00.0000, 2.387015507750035E+08, 9.110881023104259E+07, 6.444751573921300E+07,
2461029.500000000, A.D. 2025-Dec-20 00:00:00.0000, 2.324401783370734E+08, 1.028470092060191E+08, 6.855174836536361E+07,
2461036.500000000, A.D. 2025-Dec-27 00:00:00.0000, 2.255605157146596E+08, 1.143116154022723E+08, 7.247362365507680E+07,
2461043.500000000, A.D. 2026-Jan-03 00:00:00.0000, 2.180794526726466E+08, 1.254714246295243E+08, 7.620225815423268E+07,
2461050.500000000, A.D. 2026-Jan-10 00:00:00.0000, 2.100158136249994E+08, 1.362960430462031E+08, 7.972732036106664E+07,
2461057.500000000, A.D. 2026-Jan-17 00:00:00.0000, 2.013902967952785E+08, 1.467560137128910E+08, 8.303907569299147E+07,
2461064.500000000, A.D. 2026-Jan-24 00:00:00.0000, 1.922254022001139E+08, 1.568229391405184E+08, 8.612842857198858E+07,
2461071.500000000, A.D. 2026-Jan-31 00:00:00.0000, 1.825453489350391E+08, 1.664695987609903E+08, 8.898696124034417E+07,
2461078.500000000, A.D. 2026-Feb-07 00:00:00.0000, 1.723759824137555E+08, 1.756700602447611E+08, 9.160696894536132E+07,
2461085.500000000, A.D. 2026-Feb-14 00:00:00.0000, 1.617446725300933E+08, 1.843997836973679E+08, 9.398149115976307E+07,
2461092.500000000, A.D. 2026-Feb-21 00:00:00.0000, 1.506802039670210E+08, 1.926357184389227E+08, 9.610433858924949E+07,
2461099.500000000, A.D. 2026-Feb-28 00:00:00.0000, 1.392126585060712E+08, 2.003563927279671E+08, 9.797011594159526E+07,
2461106.500000000, A.D. 2026-Mar-07 00:00:00.0000, 1.273732882787149E+08, 2.075419937962679E+08, 9.957424031234185E+07,
2461113.500000000, A.D. 2026-Mar-14 00:00:00.0000, 1.151943838193667E+08, 2.141744353236743E+08, 1.009129546521982E+08,
2461120.500000000, A.D. 2026-Mar-21 00:00:00.0000, 1.027091398618553E+08, 2.202374148197111E+08, 1.019833363536813E+08,
2461127.500000000, A.D. 2026-Mar-28 00:00:00.0000, 8.995151804264776E+07, 2.257164616254654E+08, 1.027833012287735E+08,
2461134.500000000, A.D. 2026-Apr-04 00:00:00.0000, 7.695610709034124E+07, 2.305989743930025E+08, 1.033116029150855E+08,
2461141.500000000, A.D. 2026-Apr-11 00:00:00.0000, 6.375798195688475E+07, 2.348742476351512E+08, 1.035678277660464E+08,
2461148.500000000, A.D. 2026-Apr-18 00:00:00.0000, 5.039256320193031E+07, 2.385334874154811E+08, 1.035523853598976E+08,
2461155.500000000, A.D. 2026-Apr-25 00:00:00.0000, 3.689547777365745E+07, 2.415698163907253E+08, 1.032664948158794E+08,
2461162.500000000, A.D. 2026-May-02 00:00:00.0000, 2.330242224556746E+07, 2.439782684907292E+08, 1.027121671532153E+08,
2461169.500000000, A.D. 2026-May-09 00:00:00.0000, 9.649029592095248E+06, 2.457557735923177E+08, 1.018921839676037E+08,
2461176.500000000, A.D. 2026-May-16 00:00:00.0000, -4.029259233018881E+06, 2.469011328414723E+08, 1.008100727309754E+08,
2461183.500000000, A.D. 2026-May-23 00:00:00.0000, -1.769731806023669E+07, 2.474149862431065E+08, 9.947007914344287E+07,
2461190.500000000, A.D. 2026-May-30 00:00:00.0000, -3.132045397189750E+07, 2.472997735006052E+08, 9.787713711067063E+07,
2461197.500000000, A.D. 2026-Jun-06 00:00:00.0000, -4.486452117870149E+07, 2.465596855198105E+08, 9.603683644784074E+07,
2461204.500000000, A.D. 2026-Jun-13 00:00:00.0000, -5.829602616612159E+07, 2.452006075021191E+08, 9.395538833745477E+07,
2461211.500000000, A.D. 2026-Jun-20 00:00:00.0000, -7.158222423489515E+07, 2.432300573360359E+08, 9.163958919433546E+07,
2461218.500000000, A.D. 2026-Jun-27 00:00:00.0000, -8.469120884445864E+07, 2.406571197267036E+08, 8.909678341273622E+07,
2461225.500000000, A.D. 2026-Jul-04 00:00:00.0000, -9.759199357938011E+07, 2.374923760568446E+08, 8.633482526341668E+07,
2461232.500000000, A.D. 2026-Jul-11 00:00:00.0000, -1.102545864016419E+08, 2.337478306082886E+08, 8.336204022716172E+07,
2461239.500000000, A.D. 2026-Jul-18 00:00:00.0000, -1.226500560988499E+08, 2.294368339118270E+08, 8.018718606185390E+07,
2461246.500000000, A.D. 2026-Jul-25 00:00:00.0000, -1.347505909856570E+08, 2.245740039406608E+08, 7.681941388345402E+07,
2461253.500000000, A.D. 2026-Aug-01 00:00:00.0000, -1.465295499631702E+08, 2.191751457748542E+08, 7.326822951155895E+07,
2461260.500000000, A.D. 2026-Aug-08 00:00:00.0000, -1.579615059369288E+08, 2.132571703333336E+08, 6.954345529113317E+07,
2461267.500000000, A.D. 2026-Aug-15 00:00:00.0000, -1.690222814483716E+08, 2.068380132081099E+08, 6.565519259795016E+07,
2461274.500000000, A.D. 2026-Aug-22 00:00:00.0000, -1.796889776004570E+08, 1.999365553570489E+08, 6.161378538202509E+07,
2461281.500000000, A.D. 2026-Aug-29 00:00:00.0000, -1.899399989271054E+08, 1.925725447754529E+08, 5.742978500910494E+07,
2461288.500000000, A.D. 2026-Sep-05 00:00:00.0000, -1.997550724435209E+08, 1.847665167168787E+08, 5.311391610147671E+07,
$$EOE